AMC-1 (GE-1)            
1 24315U 96054A   23007.72719428  .00000072  00000+0  00000+0 0  9998
2 24315   6.1023  71.4056 0003742 214.7576 311.7334  1.00271885 33729
AMC-3 (GE-3)            
1 24936U 97050A   23007.59541267 -.00000252  00000+0  00000+0 0  9994
2 24936   5.0437  77.5582 0003373 208.5945 323.0708  1.00272872 39833
ASTRA 1G                
1 25071U 97076A   23007.82879733  .00000122  00000+0  00000+0 0  9996
2 25071   6.7116  66.7040 0004126 220.3060 137.8466  1.00272520 91900
ASTRA 2A                
1 25462U 98050A   23007.83638069  .00000078  00000+0  00000+0 0  9999
2 25462   3.9151  83.3799 0003570 199.3131 182.7390  1.00269810 33745
AMC-4 (GE-4)            
1 25954U 99060A   23007.72623547  .00000098  00000+0  00000+0 0  9992
2 25954   2.0361  89.5270 0003224 204.4276 299.5956  1.00271325 30959
NSS-11 (AAP-1)          
1 26554U 00059A   23007.86000241  .00000037  00000+0  00000+0 0  9997
2 26554   0.0262 320.5831 0002827 322.4344 309.7199  1.00271452 28692
AMC-6 (GE-6)            
1 26580U 00067A   23007.72553815  .00000117  00000+0  00000+0 0  9999
2 26580   0.0301 310.9482 0002755 335.9341 302.3106  1.00271186 81304
ASTRA 2D                
1 26638U 00081A   23007.82966897  .00000136  00000+0  00000+0 0  9999
2 26638   7.7248  58.8998 0001791 223.9499 146.6365  1.00274836 40318
AMC-8 (GE-8)            
1 26639U 00081B   23007.83611918  .00000104  00000+0  00000+0 0  9997
2 26639   2.8764  87.6277 0005210 217.5961 158.9272  0.99147612 80732
ASTRA 2C                
1 26853U 01025A   23007.61965701 -.00000251  00000+0  00000+0 0  9996
2 26853   5.0680  77.3675 0003328 215.1514 324.9775  1.00269643 32446
NSS-7                   
1 27414U 02019A   23007.39066209 -.00000151  00000+0  00000+0 0  9993
2 27414   6.3753  69.6171 0002620 217.5940 300.1043  1.00271538 75967
NSS-6                   
1 27603U 02057A   23007.86287885  .00000118  00000+0  00000+0 0  9994
2 27603   2.1276  89.3048 0003904 199.9451 318.9902  1.00271823 73448
AMC-11 (GE-11)          
1 28252U 04017A   23005.00548841 -.00000079  00000+0  00000+0 0  9996
2 28252   0.0448 300.8212 0008576 243.1304 171.2441  1.00556615 68245
AMC-15                  
1 28446U 04041A   23008.43088310 -.00000076  00000+0  00000+0 0  9995
2 28446   0.0253 331.6787 0002693 312.3038 233.7918  1.00272023 66755
NSS-10 (AMC-12)         
1 28526U 05003A   23007.81746588 -.00000241  00000+0  00000+0 0  9996
2 28526   3.2911  85.1712 0003225 198.0301  80.7283  1.00270784 40550
ASTRA 1KR               
1 29055U 06012A   23008.36090924  .00000132  00000+0  00000+0 0  9990
2 29055   0.0463 271.0025 0005195 347.8479 357.8866  1.00271131 61157
AMC-18                  
1 29644U 06054B   23008.45396833 -.00000203  00000+0  00000+0 0  9998
2 29644   0.0207  55.2080 0002944 241.2040 251.7509  1.00271428 58937
ASTRA 1L                
1 31306U 07016A   23008.36090924  .00000132  00000+0  00000+0 0  9997
2 31306   0.0562 317.0808 0005560 329.9573 329.7121  1.00271109 57445
ASTRA 4A (SIRIUS 4)     
1 32299U 07057A   23007.82592088  .00000045  00000+0  00000+0 0  9995
2 32299   0.0133 358.2439 0003080 287.6716 123.3314  1.00272565 39069
AMC-21                  
1 33275U 08038B   23008.44560050  .00000049  00000+0  00000+0 0  9997
2 33275   0.0451 298.0434 0002675 355.1034 210.0839  1.00271753 52874
ASTRA 1M                
1 33436U 08057A   23007.82879733  .00000132  00000+0  00000+0 0  9992
2 33436   0.0163  71.2608 0001898 161.9091 191.5104  1.00270157 33121
CIEL-2                  
1 33453U 08063A   23008.44885333  .00000071  00000+0  00000+0 0  9992
2 33453   0.0144  57.7807 0003314 233.9012 208.7857  1.00270000 51535
NSS-9                   
1 33749U 09008A   23007.78974741  .00000084  00000+0  00000+0 0  9992
2 33749   0.0192 343.6034 0002434 305.4644 285.3814  1.00272978 50936
SES-7 (PROTOSTAR 2)     
1 34941U 09027A   23008.53062334 -.00000332  00000+0  00000+0 0  9995
2 34941   0.0345  73.3517 0002690 211.8976 121.8294  1.00271438 50022
NSS-12                  
1 36032U 09058A   23007.83629352  .00000084  00000+0  00000+0 0  9996
2 36032   0.0190  53.9228 0003148 236.9169 174.3362  1.00272091 48322
SES-1                   
1 36516U 10016A   23008.53382689 -.00000102  00000+0  00000+0 0  9998
2 36516   0.0107  26.7880 0002771 266.0198 266.1781  1.00272380 46544
ASTRA 3B                
1 36581U 10021A   23007.82966897  .00000149  00000+0  00000+0 0  9996
2 36581   0.0411  19.0301 0002936 269.0194 141.2275  1.00271430 46286
SES-3                   
1 37748U 11035A   23007.66096075 -.00000089  00000+0  00000+0 0  9996
2 37748   0.0180  30.8804 0002951 250.5290 320.4788  1.00271594 41997
ASTRA 1N                
1 37775U 11041A   23008.36090924  .00000132  00000+0  00000+0 0  9996
2 37775   0.0476  22.2161 0003047 320.5638 273.9933  1.00269626 41804
SES-2                   
1 37809U 11049A   23008.45318385 -.00000183  00000+0  00000+0 0  9993
2 37809   0.0135 352.7239 0003159 303.0586 248.0894  1.00271223 41404
QUETZSAT 1              
1 37826U 11054A   23008.45518865 -.00000229  00000+0  00000+0 0  9994
2 37826   0.0290 315.5701 0002914 329.2641 269.7653  1.00272334 41504
SES-4                   
1 38087U 12007A   23008.46608427 -.00000155  00000+0  00000+0 0  9996
2 38087   0.0221  48.5831 0002473 250.6001 314.3529  1.00271507 39891
SES-5                   
1 38652U 12036A   23008.26299490  .00000046  00000+0  00000+0 0  9998
2 38652   0.0575 294.3064 0002156 345.7641 287.1253  1.00272704 38478
ASTRA 2F                
1 38778U 12051A   23007.83054063  .00000162  00000+0  00000+0 0  9990
2 38778   0.0758 243.5964 0003817  11.6752 179.0093  1.00271751 37697
SES-6                   
1 39172U 13026A   23007.81685573 -.00000248  00000+0  00000+0 0  9992
2 39172   0.0245 333.7838 0002513 310.9187  75.9616  1.00271986 35129
O3B FM5                 
1 39188U 13031A   23007.76537376 -.00000021  00000+0  00000+0 0  9995
2 39188   0.0656   3.8704 0002905 288.8782  67.2181  5.00115457174183
O3B FM4                 
1 39189U 13031B   23007.82128628 -.00000021  00000+0  00000+0 0  9999
2 39189   0.0386 356.3906 0002827 295.8006  67.7761  5.00115972174297
O3B FM2                 
1 39190U 13031C   23007.71294026 -.00000021  00000+0  00000+0 0  9995
2 39190   0.0343 352.0533 0002808 298.2180  69.6958  5.00115222174253
O3B PFM                 
1 39191U 13031D   23007.73912834 -.00000021  00000+0  00000+0 0  9992
2 39191   0.0565   3.6794 0002751 282.9754  73.3123  5.00115945173800
ASTRA 2E                
1 39285U 13056A   23007.83062779  .00000163  00000+0  00000+0 0  9994
2 39285   0.0543  16.4588 0002512 280.9634 137.1845  1.00271465 33848
SES-8                   
1 39460U 13071A   23008.55319128 -.00000257  00000+0  00000+0 0  9994
2 39460   0.0496 234.4002 0000992  72.1344  95.4427  1.00272200 33280
ASTRA 5B                
1 39617U 14011B   23008.11021656  .00000167  00000+0  00000+0 0  9990
2 39617   0.0380 343.2951 0004118 307.4485 247.8204  1.00269713 32271
O3B FM3                 
1 40079U 14038A   23007.79388961 -.00000021  00000+0  00000+0 0  9991
2 40079   0.0461 358.5901 0004181 255.8875 105.4735  5.00116720150191
O3B FM7                 
1 40080U 14038B   23007.74003680 -.00000021  00000+0  00000+0 0  9990
2 40080   0.0445 353.4643 0003122 329.6268  36.8848  5.00115669155022
O3B FM6                 
1 40081U 14038C   23007.76644634 -.00000021  00000+0  00000+0 0  9993
2 40081   0.0452 359.2336 0002742 286.1020  74.6315  5.00115398154975
O3B FM8                 
1 40082U 14038D   23007.62040075 -.00000021  00000+0  00000+0 0  9998
2 40082   0.0420 359.5992 0002669 285.3427  75.0259  5.00115818155084
O3B FM10                
1 40348U 14083A   23007.84646685 -.00000021  00000+0  00000+0 0  9996
2 40348   0.0519   6.2297 0002814 280.9945  72.7423  5.00115324147215
O3B FM11                
1 40349U 14083B   23007.85987220 -.00000021  00000+0  00000+0 0  9991
2 40349   0.0540   1.5690 0003120 297.5120  60.8851  5.00115492147214
O3B FM12                
1 40350U 14083C   23008.28688734 -.00000021  00000+0  00000+0 0  9999
2 40350   0.0530   1.7880 0002942 287.0109  71.1665  5.00115360147234
O3B FM9                 
1 40351U 14083D   23007.71391636 -.00000021  00000+0  00000+0 0  9999
2 40351   0.0549   0.7624 0002763 287.9928  71.2121  5.00116173147218
ASTRA 2G                
1 40364U 14089A   23008.11021656  .00000162  00000+0  00000+0 0  9991
2 40364   0.0369 347.3807 0002242  20.8852 167.0024  1.00269495 29427
SES-9                   
1 41380U 16013A   23008.06175179 -.00000333  00000+0  00000+0 0  9994
2 41380   0.0330 295.6969 0000534  44.8816 257.3009  1.00271865 25152
SES-10                  
1 42432U 17017A   23008.32965955 -.00000260  00000+0  00000+0 0  9995
2 42432   0.0208  60.4874 0003070 225.8494 233.0504  1.00272216 21135
SES-15                  
1 42709U 17026A   23008.38035948  .00000072  00000+0  00000+0 0  9998
2 42709   0.0177   4.0190 0000916 317.8024 153.6055  1.00271015 21593
SES-11 (ECHOSTAR 105)   
1 42967U 17063A   23007.66061209 -.00000076  00000+0  00000+0 0  9999
2 42967   0.0252 306.1932 0003063 346.3604 307.2678  1.00271814 19121
SES-14                  
1 43175U 18012B   23008.46102872 -.00000266  00000+0  00000+0 0  9998
2 43175   0.0114 352.6314 0001328 287.1910 306.3839  1.00273535 18450
O3B FM15                
1 43231U 18024A   23007.57996298 -.00000021  00000+0  00000+0 0  9997
2 43231   0.0511   9.9752 0003089 277.1019  72.8864  5.00116329 88166
O3B FM16                
1 43232U 18024B   23007.63339280 -.00000021  00000+0  00000+0 0  9997
2 43232   0.0514  14.6452 0003094 273.2204  72.0980  5.00116097 88083
O3B FM14                
1 43233U 18024C   23007.67315987 -.00000021  00000+0  00000+0 0  9990
2 43233   0.0508  16.2562 0003044 275.0728  68.6358  5.00115531 88096
O3B FM13                
1 43234U 18024D   23007.32691457 -.00000022  00000+0  00000+0 0  9993
2 43234   0.0619   6.7981 0003999 279.5204  73.6349  5.00115587 88194
SES-12                  
1 43488U 18049A   23008.05904968 -.00000257  00000+0  00000+0 0  9996
2 43488   0.0129  31.3510 0002723 243.8805 308.3579  1.00270709 16815
O3B FM20                
1 44112U 19020A   23007.69984559 -.00000021  00000+0  00000+0 0  9993
2 44112   0.0513   6.1772 0003425 284.2638  69.5196  5.00115572 68717
O3B FM19                
1 44113U 19020B   23007.72670836 -.00000021  00000+0  00000+0 0  9998
2 44113   0.0708  13.6553 0002767 302.9668  43.3534  5.00115326 68783
O3B FM17                
1 44114U 19020C   23007.60722723 -.00000021  00000+0  00000+0 0  9999
2 44114   0.0345  20.5422 0003200 265.8834  73.5366  5.00115792 68660
O3B FM18                
1 44115U 19020D   23007.75360044 -.00000021  00000+0  00000+0 0  9990
2 44115   0.0517   6.0360 0002988 281.9168  72.0120  5.00115943 68797
SES-17                  
1 49332U 21095A   23007.84563524 -.00000260  00000+0  00000+0 0  9994
2 49332   0.0128  66.1953 0001265 220.4329  57.8315  1.00269704  5249
SES-22                  
1 52933U 22071A   23008.15817671  .00000101  00000+0  00000+0 0  9993
2 52933   0.0194 308.0370 0003075 336.2054 105.1273  1.00272341  1973
SES-20                  
1 53960U 22123A   23008.17638062 -.00000088  00000+0  00000+0 0  9994
2 53960   0.0689 116.9973 0000849 173.2152 137.6204  1.00270413   940
SES-21                  
1 53961U 22123B   23007.37341163  .00000081  00000+0  00000+0 0  9991
2 53961   0.0341  47.0653 0000648 276.6996 146.4122  1.00271400   962
O3B MPOWER-A F1         
1 54755U 22174A   22356.18260191  .00000047  00000+0  00000+0 0  9997
2 54755   9.6319 253.0871 1859317 195.2651 337.7567  7.25479946   387
O3B MPOWER-A F2         
1 54756U 22174B   23007.88684914  .00000049  00000+0  00000+0 0  9994
2 54756   9.6126 228.9957 1870761 242.7255  97.0308  7.26306060  1594
